{
    "STATE": {
      "HIMACHAL PRADESH": [
        {
          "CITY": {
            "DHARAMSHALA": [
              {
                "id": 1,
                "PINCODE": 176215,
                "NGO": "LIONS CLUB DHARAMSHALA A SOCIAL SERVICE SOCIETY",
                "ADDRESS": "Lions Bhawan, Civil Bazar, Sharmnagar Road, Dharmsala District Kangra of Himachal Pradesh"
              },
              {
                "id": 2,
                "PINCODE": 176057,
                "NGO": "M/S CHINMAYA TAPOVAN TRUST",
                "ADDRESS": "CHINMAYA TAPOVAN TRUST, V.P.O. SIDHBARI TEHSIL DHARMSHALA DISTT KANGRA (H.P)"
              },
              {
                "id": 3,
                "PINCODE": 176218,
                "NGO": "UTHAN Urban Tribal and Hills Advancement Society",
                "ADDRESS": "Urban, Tribal and Hills Advancement Society V.P.O. Khaniara Tehsil Dharamshala District Kangra H.P"
              },
              {
                "id": 4,
                "PINCODE": 176215,
                "NGO": "Sambhota Tibetan School",
                "ADDRESS": "Sambhota Tibetan Schools Society, Session Road- Dharamsala H.P"
              },
              {
                "id": 5,
                "PINCODE": 176215,
                "NGO": "Tong Len Charitable Trust",
                "ADDRESS": "Tong-Len Charitable Trust V.P.O. Mohal Jather Mojja Sarah, Tehsil Dharamshala Distt. Kangra (H.P) PIN 176215"
              }
            ]
          }
        },
        {
          "CITY": {
            "KULLU": [
              {
                "id": 6,
                "PINCODE": 175104,
                "NGO": "SHASTRA SOCIETY MNGO",
                "ADDRESS": "Village Gordor PO Larankelo District Kullu"
              },
              {
                "id": 7,
                "PINCODE": 175126,
                "NGO": "Adarsh Educational and Social Welfare Society",
                "ADDRESS": "Village Bhutti Colony P.O Shamshi Tehsil Bhunter Distt. Kullu (HP)"
              },
              {
                "id": 8,
                "PINCODE": 175101,
                "NGO": "THE HIMSHAKTI HANDLOOM AND HANDICRAFT LTD",
                "ADDRESS": "VILLAGE BALABEHAR P.O. DHALPUR TEHSIL & DISTRICT KULLU HIMACHAL PRADESH"
              },
              {
                "id": 9,
                "PINCODE": 175101,
                "NGO": "Natraj Development and Welfare Organization",
                "ADDRESS": "Near Block Office Dhalpur Kullu"
              },
              {
                "id": 10,
                "PINCODE": 175123,
                "NGO": "Pragitishil Vishwakarma Kalyan Sabha",
                "ADDRESS": "V.P.O. Banjar Teh. Banjar Distt. Kullu Himachal Pradesh"
              }
            ]
          }
        },
        {
          "CITY": {
            "MANDI": [
              {
                "id": 11,
                "PINCODE": 175002,
                "NGO": "Centre for Sustainable Development",
                "ADDRESS": "Below ICICI Bank, Sundernagar, Mandi, Himachal Pradesh, India"
              },
              {
                "id": 12,
                "PINCODE": 175001,
                "NGO": "Mandi Saksharta Evum Jan Vikas Samiti",
                "ADDRESS": "Mandi Saksharta Evum Jan Vikas Samiti Sauli Khadd Mandi Himachal Pradesh"
              },
              {
                "id": 13,
                "PINCODE": 175004,
                "NGO": "Deenbandhu Seva Mandal Bharnal",
                "ADDRESS": "Village Bharnal PO Dhalwan Tehsil Sarkaghat District Mandi, Himachal Pradesh"
              },
              {
                "id": 14,
                "PINCODE": 175124,
                "NGO": "GRAM SUDHAR SAMITI THONU",
                "ADDRESS": "VILLAGE THONU POST SHIVA TEHSIL SADAR DISTRICT MANDI STATE HIMACHAL PRADESH"
              },
              {
                "id": 15,
                "PINCODE": 175002,
                "NGO": "KITVIT PUBLIC TRUST",
                "ADDRESS": "NEAR HRTC SHOPPING COMPLEX, NEW BUS STAND TEHSIL SUNDER NAGAR, DISTT. MANDI-(H.P.)"
              }
            ]
          }
        },
        {
          "CITY": {
            "BILASPUR": [
              {
                "id": 16,
                "PINCODE": 174024,
                "NGO": "CHETNA HIMACHAL PRADESH",
                "ADDRESS": "Village Vijaypur P.O Auhar Tehsil Jhandutta District Bilaspur H.P"
              },
              {
                "id": 17,
                "PINCODE": 174029,
                "NGO": "MANAV SEVA SANSTHAN BERTHIN",
                "ADDRESS": "Manav Seva Sansthan Berthin Distt. Bilaspur Himachal Pradesh"
              },
              {
                "id": 18,
                "PINCODE": 174021,
                "NGO": "ARPAN FOUNDATION",
                "ADDRESS": "V.P.O Amarpur Tehsil Ghumarwin Distt Bilaspur H.P"
              },
              {
                "id": 19,
                "PINCODE": 174011,
                "NGO": "GARAM SUDHAR SIMITI BALH-KARETA",
                "ADDRESS": "V.P.O. Jamli, Tehsil Sadar, Distt. Bilaspur HP"
              },
              {
                "id": 20,
                "PINCODE": 174021,
                "NGO": "RIIMT WELFARE & EDUCATIONAL SOCIETY GHUMARWIN",
                "ADDRESS": "V.P.O. GHUMARWIN TEH. GHUMARWIN DISTT. BILASPUR (HP)"
              }
            ]
          }
        },
        {
          "CITY": {
            "SHIMLA": [
              {
                "id": 21,
                "PINCODE": 171002,
                "NGO": "SAMAJ KALYAN AVEM VIKAS MANDAL",
                "ADDRESS": "Village Shawala, P.O. Nerwa Tehsil Chopal District Shimla (H.P.)"
              },
              {
                "id": 22,
                "PINCODE": 172001,
                "NGO": "Jakh Yuva Mandal",
                "ADDRESS": "Vill. Racholi P.O. Khaneri Teh. Rampur Bushahr Distt. Shimla H.P"
              },
              {
                "id": 23,
                "PINCODE": 171002,
                "NGO": "Nav Chetna",
                "ADDRESS": "Attri Niwas, Near R.K, Traders, Khalini Shimla(H.P)"
              },
              {
                "id": 24,
                "PINCODE": 171001,
                "NGO": "Association for Social Health in India",
                "ADDRESS": " Block No.3, Set No.35, US Club Shimla(H.P)"
              },
              {
                "id": 25,
                "PINCODE": 171201,
                "NGO": "Himachal Harijan Kalyan Sanstha",
                "ADDRESS": "Himachal Harijan Kalyan Sanstha, Office Theog, District Shimla(H.P)"
              }
            ]
          }
        }
      ]
    }
  }
  